{
    "CCSDS_OMM_VERS": "3.0",
    "COMMENT": "GENERATED VIA SPACE-TRACK.ORG API",
    "CREATION_DATE": "2025-05-22T17:14:14",
    "ORIGINATOR": "18 SPCS",
    "OBJECT_NAME": "BEIDOU 3 IGSO-3",
    "OBJECT_ID": "2019-073A",
    "CENTER_NAME": "EARTH",
    "REF_FRAME": "TEME",
    "TIME_SYSTEM": "UTC",
    "MEAN_ELEMENT_THEORY": "SGP4",
    "EPOCH": "2025-05-21T19:11:45.072672",
    "MEAN_MOTION": "1.00253192",
    "ECCENTRICITY": "0.00444700",
    "INCLINATION": "55.4730",
    "RA_OF_ASC_NODE": "285.1172",
    "ARG_OF_PERICENTER": "182.5335",
    "MEAN_ANOMALY": "177.3771",
    "EPHEMERIS_TYPE": "0",
    "CLASSIFICATION_TYPE": "U",
    "NORAD_CAT_ID": "44709",
    "ELEMENT_SET_NO": "999",
    "REV_AT_EPOCH": "2053",
    "BSTAR": "0.00000000000000",
    "MEAN_MOTION_DOT": "-0.00000206",
    "MEAN_MOTION_DDOT": "0.0000000000000",
    "SEMIMAJOR_AXIS": "42169.945",
    "PERIOD": "1436.363",
    "APOAPSIS": "35979.340",
    "PERIAPSIS": "35604.280",
    "OBJECT_TYPE": "PAYLOAD",
    "RCS_SIZE": "LARGE",
    "COUNTRY_CODE": "PRC",
    "LAUNCH_DATE": "2019-11-04",
    "SITE": "XSC",
    "DECAY_DATE": null,
    "FILE": "4736220",
    "GP_ID": "288145809",
    "TLE_LINE0": "0 BEIDOU 3 IGSO-3",
    "TLE_LINE1": "1 44709U 19073A   25141.79982723 -.00000206  00000-0  00000-0 0  9993",
    "TLE_LINE2": "2 44709  55.4730 285.1172 0044470 182.5335 177.3771  1.00253192 20538"
}